Satellite: CAPE1
Catalog number: 31130
Epoch time:      07220.69763345
Element set:      86
Inclination:      098.0794 deg
RA of node:       291.7076 deg
Eccentricity:    0.0102133
Arg of perigee:   223.3451 deg
Mean anomaly:     135.9663 deg
Mean motion:   14.51873654 rev/day
Decay rate:       -5.5e-07 rev/day^2
Epoch rev:            1623
Checksum:              286

/EX




From r.hoad at att.net  Thu Aug  9 19:20:19 2007
From: r.hoad at att.net (Ray Hoad)
Date: Thu, 09 Aug 2007 21:20:19 -0500
Subject: [keps]  orb07221.2l.amsat
Message-ID: <46BBCB63.4010107@att.net>

SB KEPS @ AMSAT  $ORB07221.N
2Line Orbital Elements 07221.AMSAT

HR AMSAT ORBITAL ELEMENTS FOR AMATEUR SATELLITES IN NASA FORMAT
FROM WA5QGD FORT WORTH,TX August 9, 2007
Send Subscribe/unsubscribe to KEPS at 
http://www.amsat.org/mailman/listinfo/keps
BID: ORB07221.N

DECODE 2-LINE ELSETS WITH THE FOLLOWING KEY:
1 AAAAAU 00  0  0 BBBBB.BBBBBBBB  .CCCCCCCC  00000-0  00000-0 0  DDDZ
2 AAAAA EEE.EEEE FFF.FFFF GGGGGGG HHH.HHHH III.IIII JJ.JJJJJJJJKKKKKZ
KEY: A-CATALOGNUM B-EPOCHTIME C-DECAY D-ELSETNUM E-INCLINATION F-RAAN
G-ECCENTRICITY H-ARGPERIGEE I-MNANOM J-MNMOTION K-ORBITNUM Z-CHECKSUM

TO ALL RADIO AMATEURS BT

AO-07
1 07530U 74089B   07220.65418642 -.00000028  00000-0  10000-3 0 09478
2 07530 101.5114 257.1125 0011877 152.2276 207.9427 12.53572501497699
AO-10
1 14129U 83058B   07221.48441457 -.00000297  00000-0  10000-3 0  4099
2 14129 026.2637 262.5698 6065792 045.9912 350.3017 02.05870181181661
UO-11
1 14781U 84021B   07221.21119050 -.00000237  00000-0 -24274-4 0  4405
2 14781 098.1891 244.9294 0009241 008.4848 351.6513 14.79569751257575
RS-15
1 23439U 94085A   07220.66571866 -.00000039  00000-0  10597-3 0 00699
2 23439 064.8194 282.0534 0157878 181.3604 178.6910 11.27552384519610
FO-29
1 24278U 96046B   07221.81895216  .00000080  00000-0  12059-3 0  5624
2 24278 098.5559 174.2718 0350246 304.5052 052.3476 13.52931720542152
SO-33
1 25509U 98061B   07221.52928278  .00000139  00000-0  14355-4 0  9917
2 25509 031.4315 284.1587 0355059 173.7055 186.8155 14.28171957458882
AO-40
1 26609U 00072B   07220.88906645  .00000005  00000-0  12794-2 0  9168
2 26609 006.1506 127.8420 7972631 350.4087 000.7343 01.25588754 31106
VO-52
1 28650U 05017B   07221.33692950 -.00000216  00000-0 -20718-4 0  6971
2 28650 097.8292 290.8582 0028471 081.2241 279.2185 14.81343468122285
PO-63
1 29712U 07001D   07221.73211283  .00000437  00000-0  64938-4 0  6229
2 29712 097.9186 280.1425 0013420 320.8064 039.2180 14.79785515 31254
AO-16
1 20439U 90005D   07220.92312797 -.00000009  00000-0  11607-4 0 01017
2 20439 098.1985 212.5796 0011910 032.9540 327.2386 14.31766826916097
LO-19
1 20442U 90005G   07220.53352120  .00000007  00000-0  17603-4 0 00278
2 20442 098.1823 221.4880 0012888 032.9452 327.2528 14.32007112916187
AO-27
1 22825U 93061C   07220.91473708  .00000122  00000-0  64260-4 0 07511
2 22825 098.3349 188.5081 0009340 103.8216 256.4001 14.29215229723024
IO-26
1 22826U 93061D   07220.53300341  .00000005  00000-0  18070-4 0 04494
2 22826 098.3279 189.1914 0009749 100.2636 259.9646 14.29461127723055
PO-28
1 22829U 93061G   07220.88316666 -.00000073  00000-0 -12365-4 0 07268
2 22829 098.3166 190.6851 0010804 076.8855 283.3543 14.30161980723340
GO-32
1 25397U 98043D   07220.89101431 -.00000045  00000-0 -14635-5 0 03717
2 25397 098.4108 265.7882 0002207 082.7869 277.3579 14.23128786471652
MO-46
1 26548U 00057D   07220.91216694  .00000038  00000-0  22435-4 0 08660
2 26548 064.5571 019.5501 0008981 191.4033 168.6889 14.83164188371363
NO-44
1 26931U 01043C   07220.49281398  .00000188  00000-0  10594-3 0 06541
2 26931 067.0524 012.7503 0007251 259.9811 100.0436 14.29493219305573
SO-50
1 27607U 02058C   07221.41328846 -.00000138  00000-0  45299-6 0  3784
2 27607 064.5595 283.4299 0060536 345.8220 014.1147 14.71276480248955
CO-55
1 27844U 03031E   07220.50902202  .00000011  00000-0  25674-4 0 00927
2 27844 098.7187 228.0942 0009159 306.5945 053.4396 14.20524852212907
CO-57
1 27848U 03031J   07220.53629442  .00000031  00000-0  34780-4 0 00511
2 27848 098.7180 227.2977 0009436 309.8082 050.2265 14.20342730212889
AO-51
1 28375U 04025K   07221.14749546 -.00000003  00000-0  11952-4 0  8825
2 28375 098.1089 257.7272 0085200 022.3555 338.1309 14.40576092163332
CO-56
1 28941U 06005C   07220.92995385  .00026656  24292-5  26085-3 0 05355
2 28941 098.1249 287.9594 0219965 086.1457 276.4909 15.41856095081556
HO-59
1 29484U 06041F   07221.46108306  .00045886  29788-5  28895-3 0  5753
2 29484 098.2807 279.4558 0194697 074.7139 287.5437 15.55125589 49342
NO-60
1 29661U 06055C   07150.05824307  .13324117  12618-4  10400-3 0  3000
2 29661 051.6186 176.5045 0007204 190.7749 188.7342 16.52052832 25544
NO-61
1 29664U 06055F   07221.73616812  .00040476  11903-4  10881-3 0  3713
2 29664 051.6285 169.4369 0009959 183.8660 176.2198 15.95136978 36690
CP4
1 31122U 07012F   07220.65870266  .00000596  00000-0  14251-3 0  1044
2 31122 098.0825 292.2341 0085068 221.9933 137.4709 14.55024798 16487
CP3
1 31128U 07012M   07220.69905951 -.00000048  00000-0  00000 0 0   982
2 31128 098.0818 291.7110 0102202 223.0485 136.2685 14.51853842 16440
LIBERT
1 31129U 07012N   07221.65709792  .00000383  00000-0  10000-3 0  2848
2 31129 098.0789 292.6402 0101394 220.5942 138.7631 14.51947741 16566
NOAA-10
1 16969U 86073A   07220.59819599 -.00000088  00000-0 -17662-4 0 07612
2 16969 098.7455 237.8092 0012899 018.9323 341.2337 14.27330337086704
NOAA-11
1 19531U 88089A   07220.81683481 -.00000162  00000-0 -61109-4 0 07789
2 19531 098.8114 309.3276 0010887 239.3248 120.6862 14.14847048973596
NOAA-12
1 21263U 91032A   07220.94432255  .00000085  00000-0  54768-4 0 02758
2 21263 098.7547 218.1039 0012184 318.5584 041.4664 14.25552002843769
MET-3/5
1 21655U 91056A   07221.80694374  .00000051  00000-0  10000-3 0  3043
2 21655 082.5591 325.0619 0014663 075.5119 284.7630 13.17011425768461
MET-2/21
1 22782U 93055A   07220.79744958  .00000000  00000-0 -13325-4 0  8995
2 22782 082.5499 000.1730 0024106 088.8411 271.5525 13.83618391703790
OKEAN-4
1 23317U 94066A   07221.77088822  .00000099  00000-0  92135-5 0  3396
2 23317 082.5369 246.5410 0024149 077.4316 282.9647 14.82523295691994
NOAA-14
1 23455U 94089A   07220.87726250  .00000177  00000-0  11786-3 0 07615
2 23455 098.9870 287.3364 0008675 314.7582 045.2862 14.13724459650087
SICH-1
1 23657U 95046A   07220.76774428 -.00000022  00000-0 -58817-5 0 01399
2 23657 082.5268 028.4217 0025803 071.1621 289.2380 14.81504724643816
NOAA-15
1 25338U 98030A   07220.91626973 -.00000005  00000-0  16124-4 0 01081
2 25338 098.5337 216.1192 0009655 232.9454 127.0845 14.24659035480192
RESURS
1 25394U 98043A   07221.67465344 -.00000008  00000-0  14693-4 0  7071
2 25394 098.4356 274.0775 0002378 046.3334 313.8037 14.24142565471961
FENGYUN1
1 25730U 99025A   07220.52619934  .00000463  00000-0  29893-3 0  1935
2 25730 098.6904 202.4141 0020018 345.1844 014.8876 14.07572009424839
OKEAN-0
1 25860U 99039A   07220.52161649  .00000019  00000-0  10195-4 0 01279
2 25860 097.7322 220.3284 0000879 102.3912 257.7393 14.73466943433201
NOAA-16
1 26536U 00055A   07220.53953732 -.00000045  00000-0  58042-6 0 05351
2 26536 099.1197 198.4014 0011205 030.4657 329.7140 14.12444608354496
NOAA-17
1 27453U 02032A   07220.86974294  .00000085  00000-0  55849-4 0 05442
2 27453 098.5775 288.9020 0010748 302.8479 057.1666 14.23899664266216
NOAA-18
1 28654U 05018A   07220.93741271 -.00000027  00000-0  92115-5 0 00741
2 28654 098.8283 161.3398 0015093 116.5604 243.7102 14.11084779114295
HUBBLE
1 20580U 90037B   07220.29621612  .00000275  00000-0  84220-5 0 09348
2 20580 028.4679 210.3201 0003551 287.0360 072.9842 15.00266549747796
UARS
1 21701U 91063B   07221.73433225  .00002071  00000-0  41050-4 0  1379
2 21701 056.9750 081.4788 0085735 297.2772 061.9572 15.48618345874043
PO-34
1 25520U 98064B   07220.93680680  .00000309  00000-0  55068-5 0 07980
2 25520 028.4599 115.6955 0005587 114.2828 245.8349 15.17030851485548
ISS
1 25544U 98067A   07221.88994881  .00010652  00000-0  70505-4 0  7507
2 25544 051.6327 186.5423 0008301 221.6349 182.7599 15.76169438499254
OO-38
1 26063U 00004C   07220.57267326 -.00000035  00000-0  83653-5 0 09810
2 26063 100.2283 232.8731 0037173 012.9886 347.2242 14.35812079394578
UWE-1
1 28892U 05043C   07220.72576737  .00000052  00000-0  20644-4 0 08172
2 28892 098.1244 116.3127 0016498 311.4937 048.4876 14.59528832094878
CO-58
1 28895U 05043F   07221.38832024 -.00000014  00000-0  67621-5 0  7953
2 28895 098.1271 117.1931 0017003 309.6130 050.3508 14.59573475 94855
NCUBE2
1 28897U 05043H   07220.22336169  .00000098  00000-0  30297-4 0 03221
2 28897 098.1254 116.0044 0016680 315.3997 044.5856 14.59737754086962
NMARS
1 29662U 06055D   07126.39603970  .07031946  12599-4  11450-3 0  2632
2 29662 051.6121 302.3682 0004459 252.1654 110.7411 16.47981436 21652
FCAL
1 29667U 06055J   07221.34081796  .00015051  11184-4  59968-4 0  2531
2 29667 051.6310 175.1639 0012858 185.5771 174.5071 15.89966955 36454
FALCON
1 30776U 07006E   07219.47861947  .00000172  00000-0  15713-4 0 01196
2 30776 035.4345 261.7237 0000794 228.8513 131.2135 15.02745039022776
MAST
1 31126U 07012K   07220.65062587  .00000393  00000-0  10000-3 0 01028
2 31126 098.0778 291.9290 0094061 222.7043 136.6821 14.53357345016471
CAPE1
1 31130U 07012P   07220.69763345 -.00000055  00000-0 -15111-5 0   865
2 31130 098.0794 291.7076 0102133 223.3451 135.9663 14.51873654 16238
/EX





From r.hoad at att.net  Thu Aug 16 20:08:12 2007
From: r.hoad at att.net (Ray Hoad)
Date: Thu, 16 Aug 2007 22:08:12 -0500
Subject: [keps]  orb07228.amsat
Message-ID: <46C5111C.50508@att.net>

SB KEPS @ AMSAT  $ORB07228.O
Orbital Elements  07228.OSCAR

HR AMSAT ORBITAL ELEMENTS FOR OSCAR SATELLITES
FROM WA5QGD FORT WORTH,TX August 16, 2007
Send Subscribe/unsubscribe to KEPS at 
http://www.amsat.org/mailman/listinfo/keps
BID: ORB07228.O
TO ALL RADIO AMATEURS BT

